Id,First name,Last name,Address,City,State,Zip
9,Vernonx,Klein,Ap #638-2444 Sem. Rd.,Wynne,VA,14715
11,Susan,Floyd less,2138 Mauris Rd.,Kent ,SD,94619
12,Oceansd,Welch,Ap #328-4231 Aliquam Ave,Durango,MN,34848
13,Olympia,Reid,Ap #119-6421 Vulputate St.,Laconia,AL,42649
14,Leigh,Madden,1134 Commodo St.,Jeannette,IN,64702
15,Jenna,Sims,Ap #188-3087 Semper Rd.,White Plains,CO,51000
16,Marsden,Mcknight,891-2555 Ligula Av.,Peekskill,VT,38453
17,Demetria,Mooney,Ap #400-7304 Vehicula Ave,Signal Hill,GA,32448
18,April,Copeland,"P.O. Box 940, 1713 Nunc Rd.",White Plains,CA,98831
19,Jason,Hale,"Ap #667-483 Vulputate, St.",Ventura,SC,9689
20,Tana,Malone,640-9421 Arcu. Avenue,Modesto,CA,90815
21,Dillon,Andrews,Ap #775-8997 Nunc Avenue,Juneau,GA,18307
22,Stone,Kirkland,"P.O. Box 686, 9425 Morbi Road",Colorado Springs,UT,93246
23,Edward,Burton,"5310 Vel, Avenue",Harrisburg,AK,15122
24,Adam,Ramsey,6383 Euismod Road,Fulton,AZ,14148
25,Serina,Randolph,Ap #832-9968 Cras Rd.,Baltimore,VT,2934
26,Abraham,Beasley,"1146 Scelerisque, Road",Pierre,WV,10668
27,Kerry,Grant,"P.O. Box 613, 193 Nullam St.",Bloomington,MN,59983
28,Wyoming,Sullivan,9747 Volutpat Road,Auburn Hills,OR,85244
29,Reese,Singleton,7322 Sagittis. Av.,Schaumburg,WY,97495
30,Rosalyn,Spencer,"P.O. Box 296, 6612 Est. Ave",Eatontown,WV,88032
31,Shelby,Cohen,"P.O. Box 196, 4793 Volutpat. Rd.",Basin,IA,3952
32,Quinn,Wiley,"P.O. Box 599, 2455 Accumsan Avenue",Centennial,SC,61389
33,Kameko,Cox,181-6497 At Rd.,Nenana,AK,45163
34,Brody,Mccarty,"P.O. Box 588, 4717 Tellus. Street",Vicksburg,NJ,67362
35,Lana,England,576-4991 Enim Av.,Johnstown,FL,72504
36,Cassandra,Graves,1951 Turpis. Street,Dickinson,MS,14187
37,Nicholas,Brock,222-910 Amet Rd.,Tonawanda,IA,4308
38,Kuame,Huffman,"793-1081 In, Av.",South El Monte,MA,80857
39,Xenos,Clarke,437-3387 Arcu Road,Newburgh,NV,5780
40,Cooper,Jensen,"P.O. Box 138, 4309 Non Rd.",Opelousas,VA,93062
41,Deacon,Tyson,156-1937 Ultrices Rd.,Spokane Valley,FL,76778
42,Dawn,Potter,8472 Pellentesque Rd.,Chesapeake,OH,66729
43,Zane,Calderon,739-7377 Nascetur Rd.,Elsmere,VA,62940
44,Cecilia,Carney,3243 Lorem Ave,Shawnee,NM,22241
45,Connor,Marquez,5263 Purus Ave,Lockport,ID,40334
46,Gillian,Kirk,"P.O. Box 570, 1525 Magna Av.",Ada,CT,30771
47,Wallace,Gillespie,"550-2279 Tellus, Ave",Missoula,WA,96349
48,Risa,Ayers,Ap #948-9845 Mi Avenue,Pass Christian,OH,72881
49,Callum,Solomon,178-516 Ultrices. Rd.,Fall River,MD,3691
50,Nola,Rojas,Ap #185-9503 Sed Street,Juneau,NH,77099
51,Talon,Rowland,4575 Massa. Street,Marquette,IN,37429
52,Cheryl,Bowers,1348 Ut Rd.,Hutchinson,IL,44144
53,Bree,Gaines,Ap #190-9800 Facilisi. Rd.,Bowling Green,ME,62391
54,Lacota,Bonner,3229 Felis. St.,Jenks,DE,54999
55,Bradley,Freeman,2339 Sit Rd.,New Orleans,WY,83323
56,Jasper,Santiago,2990 Malesuada Rd.,Williamsport,IL,409
57,Hilary,Conner,2000 Diam. Rd.,Roanoke,MN,50683
58,Zena,Fox,9604 Dolor Road,Palm Springs,WA,93143
59,Britanni,Schmidt,485-6357 Dictum Road,Bradbury,VT,48121
60,Caleb,Lynn,Ap #318-2121 Sapien Rd.,Kettering,MS,74815
61,Madeson,Robbins,"P.O. Box 690, 861 Magna. Avenue",Bismarck,MN,37748
62,Emily,Richmond,"P.O. Box 629, 2724 Velit. Av.",Las Cruces,VA,34490
63,Damian,Wilson,Ap #209-5365 Pulvinar Road,Boulder,ND,37920
64,Mikayla,Mendez,"P.O. Box 244, 1762 Libero. Ave",Buffalo,SD,28431
65,Igor,Gutierrez,192-1646 Hendrerit. St.,Chicopee,CT,94701
66,Heather,Terrell,"P.O. Box 107, 7190 Augue, Rd.",Statesboro,MI,36440
67,Rose,Barry,"P.O. Box 358, 4774 Sagittis Street",Fairmont,UT,37251
68,Bernard,Gilmore,546-292 Venenatis St.,Sandpoint,OH,35643
69,Meghan,Mack,1845 Consectetuer Av.,Blacksburg,OH,9551
70,Lillith,Terrell,"P.O. Box 495, 7797 Leo. Ave",Augusta,DE,44898
71,Jaquelyn,James,795-3722 Lectus. Street,Alpharetta,WI,91617
72,Karly,Beard,370-8115 Mus. Ave,Norfolk,GA,78062
73,Kareem,Cooke,"9070 Ante, Av.",Somersworth,WA,87594
74,Amethyst,Bass,Ap #387-6244 Malesuada Av.,Clarksville,NE,24386
75,Silas,Bates,"P.O. Box 220, 5319 Faucibus Ave",West Lafayette,OH,49890
76,Sybil,Watts,"502-6016 Ultrices, Road",Santa Clarita,AK,42911
77,Warren,Hays,"Ap #387-9280 Dui, Avenue",Dover,PA,75674
78,Kirsten,Martin,"P.O. Box 548, 6344 Sit Av.",Benton Harbor,MD,65775
79,Cade,Lowe,"4356 Lorem, Ave",Valdez,NM,37102
80,Penelope,Moss,Ap #705-2124 Phasellus Rd.,Reedsport,AK,74040
81,Chase,Andrews,9353 Rutrum Av.,Salt Lake City,MO,89592
82,Fatima,Mcconnell,"P.O. Box 144, 1027 Aliquam Avenue",Yazoo City,CT,84334
83,Kelly,Garcia,"P.O. Box 902, 1916 Vel, Road",Plymouth,AK,91414
84,Aubrey,Leblanc,Ap #479-3210 Magnis Street,Phoenix,MD,89834
85,Cassidy,Dyer,"P.O. Box 169, 959 Et, Road",Clarksville,NY,71212
86,Rina,Lawrence,8469 Eu Road,Berkeley,KY,14459
87,Malcolm,Richard,8826 Erat St.,Boston,CA,22844
88,Avye,Fowler,Ap #942-4652 Aliquam Rd.,Roseville,IN,43892
89,Jeremy,Randolph,Ap #939-5888 Mollis. Rd.,Rolling Hills Estates,MI,72412
90,Ray,Clayton,"P.O. Box 422, 2469 Curabitur Rd.",Hope,IN,64889
91,Lynn,Turner,249 Sed Street,Austin,IN,5518
92,Eric,Guzman,173-245 Arcu. Ave,Temecula,LA,91680
93,Daphne,Preston,Ap #542-5775 Nibh Rd.,Sun Valley,TN,31014
94,Ivy,Vazquez,"P.O. Box 292, 8217 Vel Avenue",Half Moon Bay,TX,92194
95,Teegan,Jimenez,"5503 Odio, Rd.",GuÃ¡nica,SC,12336
96,Quemby,Floyd,200-5264 Laoreet Ave,Orangeburg,WI,93197
97,Aristotle,Harris,348-9080 Ultrices Rd.,Cheyenne,MA,74732
98,avel,Floyd,502-9689 Ante Street,Hartland,NV,81261
99,Liberty,Gomez,Ap #685-1260 Velit Avenue,Baltimore,SC,21141
100,Ivy,Hebert,4393 Sodales Av.,Des Moines,MD,25787
101,adan ,rivera,ad,heredia,he,1
